GLOBALSTAR M068         
1 32266U 07048D   24337.84980128 -.00000061  00000+0  23957-3 0  9993
2 32266  51.9860 180.7528 0002087  75.4703 297.7967 12.62810492792756
GLOBALSTAR M079         
1 37188U 10054A   24337.82511014 -.00000082  00000+0  11887-3 0  9996
2 37188  52.0060  17.5451 0000418 157.9875  13.7074 12.62267811651651
GLOBALSTAR M074         
1 37189U 10054B   24337.85104243 -.00000079  00000+0  13625-3 0  9990
2 37189  52.0039  16.8166 0000233  81.2043  89.8126 12.62259755652262
GLOBALSTAR M076         
1 37190U 10054C   24337.87783503 -.00000073  00000+0  17019-3 0  9991
2 37190  52.0053  16.8913 0000098 204.8766 326.0867 12.62274201652344
GLOBALSTAR M077         
1 37191U 10054D   24337.78571132 -.00000089  00000+0  81959-4 0  9997
2 37191  52.0087 333.9722 0000294  64.6781 107.3410 12.62267715652346
GLOBALSTAR M075         
1 37192U 10054E   24338.25284781 -.00000080  00000+0  13406-3 0  9994
2 37192  51.9962  58.1124 0000539 113.6249 263.6517 12.62269616651632
GLOBALSTAR M073         
1 37193U 10054F   24338.10832190 -.00000096  00000+0  44588-4 0  9995
2 37193  52.0074 332.2227 0000169  46.1385  34.1413 12.62273391653126
GLOBALSTAR M083         
1 37739U 11033A   24337.79436510 -.00000068  00000+0  20187-3 0  9996
2 37739  51.9864 282.1787 0000572  75.7253 317.0812 12.62268650622057
GLOBALSTAR M088         
1 37740U 11033B   24337.84272956 -.00000064  00000+0  22165-3 0  9990
2 37740  51.9709 187.6877 0001096  90.6372 282.7067 12.62266142617605
GLOBALSTAR M091         
1 37741U 11033C   24337.77717385 -.00000096  00000+0  42496-4 0  9998
2 37741  51.9969 151.0920 0001253 108.9317 265.1393 12.62271431618385
GLOBALSTAR M085         
1 37742U 11033D   24337.60500694 -.00000109  00000+0 -28657-4 0  9993
2 37742  51.9857 102.8250 0001067 122.4019 250.1366 12.62269743618876
GLOBALSTAR M081         
1 37743U 11033E   24337.81343637 -.00000112  00000+0 -46173-4 0  9996
2 37743  51.9949 104.8561 0000826 132.1457 348.0189 12.62273809619040
GLOBALSTAR M089         
1 37744U 11033F   24337.94376036 -.00000091  00000+0  72568-4 0  9992
2 37744  51.9945  58.7261 0000287 112.2234  59.5324 12.62272694619905
GLOBALSTAR M084         
1 38040U 11080A   24337.64017929 -.00000070  00000+0  18909-3 0  9999
2 38040  52.0016 286.8348 0000717  31.7543 140.0930 12.62271565597845
GLOBALSTAR M080         
1 38041U 11080B   24338.13480087 -.00000075  00000+0  15874-3 0  9997
2 38041  52.0068 286.8679 0000629  10.2487   9.6171 12.62269353598177
GLOBALSTAR M082         
1 38042U 11080C   24338.08316126 -.00000048  00000+0  31342-3 0  9992
2 38042  52.0070 242.4505 0001238  85.0333   0.4060 12.62270483598907
GLOBALSTAR M092         
1 38043U 11080D   24338.12602278 -.00000095  00000+0  50325-4 0  9999
2 38043  52.0102 332.6854 0000436  57.7590 342.6513 12.62269942597409
GLOBALSTAR M090         
1 38044U 11080E   24338.20644477 -.00000042  00000+0  34475-3 0  9995
2 38044  51.9883 236.1353 0000950  80.3025  86.1001 12.62264404598908
GLOBALSTAR M086         
1 38045U 11080F   24338.14978072 -.00000049  00000+0  30613-3 0  9997
2 38045  51.9890 236.8430 0000037 145.1341   4.1370 12.62264196598904
GLOBALSTAR M097         
1 39072U 13005A   24337.74785026 -.00000095  00000+0  50257-4 0  9995
2 39072  52.0015 152.4152 0001011 108.9382 251.1595 12.62268117546009
GLOBALSTAR M093         
1 39073U 13005B   24337.72094794 -.00000105  00000+0 -65344-5 0  9996
2 39073  51.9784 146.1108 0001106 112.9794 247.1189 12.62276929545956
GLOBALSTAR M094         
1 39074U 13005C   24337.95874159 -.00000085  00000+0  10211-3 0  9990
2 39074  51.9975  59.5732 0000744 145.0500 215.0415 12.62265765547615
GLOBALSTAR M096         
1 39075U 13005D   24337.81356343 -.00000105  00000+0 -82582-5 0  9992
2 39075  52.0061 108.3758 0001100 125.8971 234.1998 12.62265234546494
GLOBALSTAR M078         
1 39076U 13005E   24337.86583926 -.00000068  00000+0  20134-3 0  9997
2 39076  51.9847 192.9929 0001855  95.5552 264.5526 12.62267323545123
GLOBALSTAR M095         
1 39077U 13005F   24337.97187072 -.00000065  00000+0  21881-3 0  9999
2 39077  51.9777 189.9672 0001499 103.3586 256.7448 12.62269271545351
GLOBALSTAR M087         
1 52888U 22064A   24338.09090728 -.00000077  00000+0  10306-3 0  9997
2 52888  51.9778 340.2996 0035504  23.1977 337.0514 13.30671697120110
